[Satellite]
VERSION=1.1
NAME=IRIDIUM 28 [-]
NICKNAME=IRIDIUM 28 [-]
TLE1=1 24948U 97051E   15055.59477686  .00000346  00000-0  11410-3 0  9990
TLE2=2 24948  86.3939 279.3778 0002273 113.2667 301.4810 14.35280593913561
